[
    {
        "Altitude(m)": 604221.1940342544,
        "Argument of Periapsis(deg)": 0.0,
        "Eccentricity": 0.0,
        "Inclination(deg)": 60.0,
        "Latitude(deg)": 14.117187156777176,
        "Longitude(deg)": -111.66583866670858,
        "Mean Anomaly(deg)": 16.363599999999984,
        "RAAN(deg)": 340.00000000000006,
        "Satellite Name": "Test1 1497",
        "Satellite Number": 1497,
        "Semi-Major Axis(m)": 6980739.136638005,
        "Time(s)": 0
    },
    {
        "Altitude(m)": 604235.334563626,
        "Argument of Periapsis(deg)": 0.00010418945913296404,
        "Eccentricity": 0.0,
        "Inclination(deg)": 60.0,
        "Latitude(deg)": 14.651583772043725,
        "Longitude(deg)": -111.37739150122813,
        "Mean Anomaly(deg)": 16.983706145461838,
        "RAAN(deg)": 339.99957995086027,
        "Satellite Name": "Test1 1497",
        "Satellite Number": 1497,
        "Semi-Major Axis(m)": 6980739.136638005,
        "Time(s)": 10
    }
]